NORAD_CAT_ID,OBJECT_NAME,OBJECT_TYPE,EPOCH,MEAN_MOTION,ECCENTRICITY,INCLINATION,RA_OF_ASC_NODE,ARG_OF_PERICENTER,MEAN_ANOMALY,BSTAR,MEAN_MOTION_DOT,MEAN_MOTION_DDOT,TLE_LINE0,TLE_LINE1,TLE_LINE2,SEMIMAJOR_AXIS,PERIOD,APOGEE,PERIGEE,DECAYED
51958.0,STARLINK-3692,PAYLOAD,2024-08-13 20:21:28,15.07995659,0.0001193,53.0532,75.6397,103.5536,256.5587,-0.00022078,-3.718e-05,0.0,0 STARLINK-3692,1 51958U 22025C   24226.84824441 -.00003718  00000-0 -22078-3 0  9993,2 51958  53.0532  75.6397 0001193 103.5536 256.5587 15.07995659135768,6920.462,95.491,543.153,541.502,0.0
51958.0,STARLINK-3692,PAYLOAD,2024-08-14 07:29:32,15.08004882,0.0002761,53.0533,73.5516,99.8952,260.2349,0.00041205,6.13e-05,0.0,0 STARLINK-3692,1 51958U 22025C   24227.31218056  .00006130  00000-0  41205-3 0  9997,2 51958  53.0533  73.5516 0002761  99.8952 260.2349 15.08004882135836,6920.434,95.49,544.21,540.388,0.0
51958.0,STARLINK-3692,PAYLOAD,2024-08-14 20:13:00,15.08042047,0.0001305,53.0543,71.1644,107.9284,252.1848,0.0012583,0.00019364,0.0,0 STARLINK-3692,1 51958U 22025C   24227.84237100  .00019364  00000-0  12583-2 0  9995,2 51958  53.0543  71.1644 0001305 107.9284 252.1848 15.08042047135913,6920.32,95.488,543.089,541.282,0.0
51958.0,STARLINK-3692,PAYLOAD,2024-08-15 20:04:31,15.08057255,0.0001443,53.0536,66.6909,99.744,260.3713,0.00022012,3.145e-05,0.0,0 STARLINK-3692,1 51958U 22025C   24228.83647860  .00003145  00000-0  22012-3 0  9992,2 51958  53.0536  66.6909 0001443  99.7440 260.3713 15.08057255136069,6920.274,95.487,543.138,541.14,0.0
51958.0,STARLINK-3692,PAYLOAD,2024-08-16 23:06:55,15.08049658,0.0001017,53.0553,61.6243,289.4476,70.6404,0.00025358,3.666e-05,0.0,0 STARLINK-3692,1 51958U 22025C   24229.96314391  .00003666  00000-0  25358-3 0  9991,2 51958  53.0553  61.6243 0001017 289.4476  70.6404 15.08049658136234,6920.297,95.488,542.866,541.458,0.0
51958.0,STARLINK-3692,PAYLOAD,2024-08-18 19:39:08,15.08047016,0.0001379,53.055,53.2693,65.6207,294.4926,0.00048365,7.255e-05,0.0,0 STARLINK-3692,1 51958U 22025C   24231.81884834  .00007255  00000-0  48365-3 0  9993,2 51958  53.0550  53.2693 0001379  65.6207 294.4926 15.08047016136516,6920.305,95.488,543.125,541.216,0.0
51958.0,STARLINK-3692,PAYLOAD,2024-08-18 21:14:34,15.0805196,0.0001277,53.0552,52.9692,80.974,279.1394,0.00057247,8.643e-05,0.0,0 STARLINK-3692,1 51958U 22025C   24231.88512062  .00008643  00000-0  57247-3 0  9992,2 51958  53.0552  52.9692 0001277  80.9740 279.1394 15.08051960135434,6920.29,95.487,543.039,541.271,0.0
51958.0,STARLINK-3692,PAYLOAD,2024-08-18 22:50:00,15.08054919,0.0001271,53.055,52.6724,82.4846,277.6288,0.00065238,9.892e-05,0.0,0 STARLINK-3692,1 51958U 22025C   24231.95139471  .00009892  00000-0  65238-3 0  9995,2 51958  53.0550  52.6724 0001271  82.4846 277.6288 15.08054919136537,6920.281,95.487,543.026,541.267,0.0
51958.0,STARLINK-3692,PAYLOAD,2024-08-20 05:03:18,15.08035712,0.000273,53.0547,46.9993,92.3377,267.7925,0.00038196,5.666e-05,0.0,0 STARLINK-3692,1 51958U 22025C   24233.21062988  .00005666  00000-0  38196-3 0  9992,2 51958  53.0547  46.9993 0002730  92.3377 267.7925 15.08035712136726,6920.34,95.488,544.094,540.316,0.0
51958.0,STARLINK-3692,PAYLOAD,2024-08-20 11:25:02,15.08034582,0.0002187,53.0538,45.807,94.9218,265.2021,0.000322,4.731e-05,0.0,0 STARLINK-3692,1 51958U 22025C   24233.47572721  .00004731  00000-0  32200-3 0  9993,2 51958  53.0538  45.8070 0002187  94.9218 265.2021 15.08034582135675,6920.343,95.489,543.722,540.695,0.0
51958.0,STARLINK-3692,PAYLOAD,2024-08-20 20:57:39,15.08041882,0.000162,53.0549,44.0232,86.5533,273.5642,0.00057602,8.696e-05,0.0,0 STARLINK-3692,1 51958U 22025C   24233.87337352  .00008696  00000-0  57602-3 0  9993,2 51958  53.0549  44.0232 0001620  86.5533 273.5642 15.08041882135735,6920.321,95.488,543.307,541.065,0.0
51958.0,STARLINK-3692,PAYLOAD,2024-08-21 20:49:12,15.08034463,0.0001463,53.0539,39.5488,78.5059,281.6095,0.00033641,4.956e-05,0.0,0 STARLINK-3692,1 51958U 22025C   24234.86750126  .00004956  00000-0  33641-3 0  9993,2 51958  53.0539  39.5488 0001463  78.5059 281.6095 15.08034463136971,6920.344,95.489,543.221,541.196,0.0
